STARLINK-30605          
1 58101U 23161E   26068.56190566 -.00001224  00000+0 -29228-4 0  9995
2 58101  53.1609 166.0140 0001186  98.2694 261.8441 15.30184179134400
TEVEL2-6                
1 63215U 25052F   26068.64958975  .00021046  00000+0  70909-3 0  9996
2 63215  97.4016 325.0381 0004769  95.6604 264.5181 15.30760889 54861
